[
    {
        "Altitude(m)": 572125.137553296,
        "Argument of Periapsis(deg)": -0.03013754771062987,
        "Eccentricity": 0.0,
        "Inclination(deg)": 97.0,
        "Latitude(deg)": 53.23884238499453,
        "Longitude(deg)": -112.5446573538889,
        "Mean Anomaly(deg)": 53.74309102558331,
        "RAAN(deg)": 0.007929404824681026,
        "Satellite Name": "Starlink Shell 3 1585",
        "Satellite Number": 1585,
        "Semi-Major Axis(m)": 6938478.169268562,
        "Time(s)": 760
    },
    {
        "Altitude(m)": 572263.7571135557,
        "Argument of Periapsis(deg)": -0.030534094391032898,
        "Eccentricity": 0.0,
        "Inclination(deg)": 97.0,
        "Latitude(deg)": 53.85063824107457,
        "Longitude(deg)": -112.80089778311873,
        "Mean Anomaly(deg)": 54.36856722328836,
        "RAAN(deg)": 0.008033739098689987,
        "Satellite Name": "Starlink Shell 3 1585",
        "Satellite Number": 1585,
        "Semi-Major Axis(m)": 6938478.169268562,
        "Time(s)": 770
    },
    {
        "Altitude(m)": 572401.7169445965,
        "Argument of Periapsis(deg)": -0.030930641071435925,
        "Eccentricity": 0.0,
        "Inclination(deg)": 97.0,
        "Latitude(deg)": 54.4619687926889,
        "Longitude(deg)": -113.06347581490209,
        "Mean Anomaly(deg)": 54.99404342099341,
        "RAAN(deg)": 0.008138073372698949,
        "Satellite Name": "Starlink Shell 3 1585",
        "Satellite Number": 1585,
        "Semi-Major Axis(m)": 6938478.169268562,
        "Time(s)": 780
    },
    {
        "Altitude(m)": 572538.934748362,
        "Argument of Periapsis(deg)": -0.031327187751838945,
        "Eccentricity": 0.0,
        "Inclination(deg)": 97.0,
        "Latitude(deg)": 55.07281363703162,
        "Longitude(deg)": -113.33272435497285,
        "Mean Anomaly(deg)": 55.619519618698455,
        "RAAN(deg)": 0.008242407646707908,
        "Satellite Name": "Starlink Shell 3 1585",
        "Satellite Number": 1585,
        "Semi-Major Axis(m)": 6938478.169268562,
        "Time(s)": 790
    },
    {
        "Altitude(m)": 572675.3288629102,
        "Argument of Periapsis(deg)": -0.031723734432241975,
        "Eccentricity": 0.0,
        "Inclination(deg)": 97.0,
        "Latitude(deg)": 55.68315094644121,
        "Longitude(deg)": -113.60899969015728,
        "Mean Anomaly(deg)": 56.244995816403495,
        "RAAN(deg)": 0.00834674192071687,
        "Satellite Name": "Starlink Shell 3 1585",
        "Satellite Number": 1585,
        "Semi-Major Axis(m)": 6938478.169268562,
        "Time(s)": 800
    },
    {
        "Altitude(m)": 572810.8183026393,
        "Argument of Periapsis(deg)": -0.032120281112645,
        "Eccentricity": 0.0,
        "Inclination(deg)": 97.0,
        "Latitude(deg)": 56.29295733862661,
        "Longitude(deg)": -113.89268296316897,
        "Mean Anomaly(deg)": 56.870472014108536,
        "RAAN(deg)": 0.008451076194725831,
        "Satellite Name": "Starlink Shell 3 1585",
        "Satellite Number": 1585,
        "Semi-Major Axis(m)": 6938478.169268562,
        "Time(s)": 810
    },
    {
        "Altitude(m)": 572945.322798111,
        "Argument of Periapsis(deg)": -0.03251682779304802,
        "Eccentricity": 0.0,
        "Inclination(deg)": 97.0,
        "Latitude(deg)": 56.90220773306926,
        "Longitude(deg)": -114.18418185233304,
        "Mean Anomaly(deg)": 57.49594821181358,
        "RAAN(deg)": 0.00855541046873479,
        "Satellite Name": "Starlink Shell 3 1585",
        "Satellite Number": 1585,
        "Semi-Major Axis(m)": 6938478.169268562,
        "Time(s)": 820
    },
    {
        "Altitude(m)": 573078.7628354329,
        "Argument of Periapsis(deg)": -0.032913374473451044,
        "Eccentricity": 0.0,
        "Inclination(deg)": 97.0,
        "Latitude(deg)": 57.510875191876515,
        "Longitude(deg)": -114.48393399377542,
        "Mean Anomaly(deg)": 58.12142440951862,
        "RAAN(deg)": 0.008659744742743752,
        "Satellite Name": "Starlink Shell 3 1585",
        "Satellite Number": 1585,
        "Semi-Major Axis(m)": 6938478.169268562,
        "Time(s)": 830
    },
    {
        "Altitude(m)": 573211.0596952472,
        "Argument of Periapsis(deg)": -0.03330992115385407,
        "Eccentricity": 0.0,
        "Inclination(deg)": 97.0,
        "Latitude(deg)": 58.118930743110056,
        "Longitude(deg)": -114.7924091483693,
        "Mean Anomaly(deg)": 58.746900607223665,
        "RAAN(deg)": 0.008764079016752713,
        "Satellite Name": "Starlink Shell 3 1585",
        "Satellite Number": 1585,
        "Semi-Major Axis(m)": 6938478.169268562,
        "Time(s)": 840
    },
    {
        "Altitude(m)": 573342.1354912384,
        "Argument of Periapsis(deg)": -0.0337064678342571,
        "Eccentricity": 0.0,
        "Inclination(deg)": 97.0,
        "Latitude(deg)": 58.726343184330815,
        "Longitude(deg)": -115.11011165821677,
        "Mean Anomaly(deg)": 59.372376804928706,
        "RAAN(deg)": 0.008868413290761674,
        "Satellite Name": "Starlink Shell 3 1585",
        "Satellite Number": 1585,
        "Semi-Major Axis(m)": 6938478.169268562,
        "Time(s)": 850
    },
    {
        "Altitude(m)": 573471.9132081784,
        "Argument of Periapsis(deg)": -0.03410301451466012,
        "Eccentricity": 0.0,
        "Inclination(deg)": 97.0,
        "Latitude(deg)": 59.33307886376651,
        "Longitude(deg)": -115.43758491000155,
        "Mean Anomaly(deg)": 59.997853002633754,
        "RAAN(deg)": 0.008972747564770634,
        "Satellite Name": "Starlink Shell 3 1585",
        "Satellite Number": 1585,
        "Semi-Major Axis(m)": 6938478.169268562,
        "Time(s)": 860
    },
    {
        "Altitude(m)": 573600.3167395096,
        "Argument of Periapsis(deg)": -0.034499561195063144,
        "Eccentricity": 0.0,
        "Inclination(deg)": 97.0,
        "Latitude(deg)": 59.939101436113596,
        "Longitude(deg)": -115.77541364432756,
        "Mean Anomaly(deg)": 60.62332920033879,
        "RAAN(deg)": 0.009077081838779597,
        "Satellite Name": "Starlink Shell 3 1585",
        "Satellite Number": 1585,
        "Semi-Major Axis(m)": 6938478.169268562,
        "Time(s)": 870
    },
    {
        "Altitude(m)": 573727.2709243987,
        "Argument of Periapsis(deg)": -0.03489610787546617,
        "Eccentricity": 0.0,
        "Inclination(deg)": 97.0,
        "Latitude(deg)": 60.5443715895385,
        "Longitude(deg)": -116.12422920143096,
        "Mean Anomaly(deg)": 61.248805398043835,
        "RAAN(deg)": 0.009181416112788556,
        "Satellite Name": "Starlink Shell 3 1585",
        "Satellite Number": 1585,
        "Semi-Major Axis(m)": 6938478.169268562,
        "Time(s)": 880
    },
    {
        "Altitude(m)": 573852.7015842899,
        "Argument of Periapsis(deg)": -0.0352926545558692,
        "Eccentricity": 0.0,
        "Inclination(deg)": 97.0,
        "Latitude(deg)": 61.14884673990017,
        "Longitude(deg)": -116.48471355523864,
        "Mean Anomaly(deg)": 61.87428159574888,
        "RAAN(deg)": 0.009285750386797516,
        "Satellite Name": "Starlink Shell 3 1585",
        "Satellite Number": 1585,
        "Semi-Major Axis(m)": 6938478.169268562,
        "Time(s)": 890
    },
    {
        "Altitude(m)": 573976.535558935,
        "Argument of Periapsis(deg)": -0.035689201236272214,
        "Eccentricity": 0.0,
        "Inclination(deg)": 97.0,
        "Latitude(deg)": 61.752480687596446,
        "Longitude(deg)": -116.85760387912549,
        "Mean Anomaly(deg)": 62.49975779345393,
        "RAAN(deg)": 0.009390084660806479,
        "Satellite Name": "Starlink Shell 3 1585",
        "Satellite Number": 1585,
        "Semi-Major Axis(m)": 6938478.169268562,
        "Time(s)": 900
    },
    {
        "Altitude(m)": 574098.7007418514,
        "Argument of Periapsis(deg)": -0.036085747916675244,
        "Eccentricity": 0.0,
        "Inclination(deg)": 97.0,
        "Latitude(deg)": 62.35522323169796,
        "Longitude(deg)": -117.2436992279022,
        "Mean Anomaly(deg)": 63.125233991158964,
        "RAAN(deg)": 0.009494418934815438,
        "Satellite Name": "Starlink Shell 3 1585",
        "Satellite Number": 1585,
        "Semi-Major Axis(m)": 6938478.169268562,
        "Time(s)": 910
    },
    {
        "Altitude(m)": 574219.1261152652,
        "Argument of Periapsis(deg)": -0.03648229459707827,
        "Eccentricity": 0.0,
        "Inclination(deg)": 97.0,
        "Latitude(deg)": 62.957019735162554,
        "Longitude(deg)": -117.64386639272817,
        "Mean Anomaly(deg)": 63.75071018886402,
        "RAAN(deg)": 0.0095987532088244,
        "Satellite Name": "Starlink Shell 3 1585",
        "Satellite Number": 1585,
        "Semi-Major Axis(m)": 6938478.169268562,
        "Time(s)": 920
    },
    {
        "Altitude(m)": 574337.7417844146,
        "Argument of Periapsis(deg)": -0.0368788412774813,
        "Eccentricity": 0.0,
        "Inclination(deg)": 97.0,
        "Latitude(deg)": 63.55781063389877,
        "Longitude(deg)": -118.05904653677395,
        "Mean Anomaly(deg)": 64.37618638656906,
        "RAAN(deg)": 0.009703087482833361,
        "Satellite Name": "Starlink Shell 3 1585",
        "Satellite Number": 1585,
        "Semi-Major Axis(m)": 6938478.169268562,
        "Time(s)": 930
    },
    {
        "Altitude(m)": 574454.4790113218,
        "Argument of Periapsis(deg)": -0.037275387957884314,
        "Eccentricity": 0.0,
        "Inclination(deg)": 97.0,
        "Latitude(deg)": 64.15753088123223,
        "Longitude(deg)": -118.49026423401027,
        "Mean Anomaly(deg)": 65.0016625842741,
        "RAAN(deg)": 0.00980742175684232,
        "Satellite Name": "Starlink Shell 3 1585",
        "Satellite Number": 1585,
        "Semi-Major Axis(m)": 6938478.169268562,
        "Time(s)": 940
    }
]